ONEWEB-0228             
1 48780U 21045P   24229.40944249 -.00000017  00000+0 -77931-4 0  9994
2 48780  87.9034  32.4576 0001661  91.7556 268.3764 13.15546191157391
